{"type":"FeatureCollection","features":[{"type":"Feature","geometry":{"type":"Point","coordinates":[-47.059564,-22.9056391]},"properties":{"nr_local":"1880","nr_zona":"0274","ano":2020,"total_votos":7652,"votos_campo":1240}},{"type":"Feature","geometry":{"type":"Point","coordinates":[-47.059564,-22.9056391]},"properties":{"nr_local":"1082","nr_zona":"0423","ano":2020,"total_votos":41116,"votos_campo":3530}},{"type":"Feature","geometry":{"type":"Point","coordinates":[-47.059564,-22.9056391]},"properties":{"nr_local":"1155","nr_zona":"0380","ano":2020,"total_votos":50320,"votos_campo":4129}},{"type":"Feature","geometry":{"type":"Point","coordinates":[-47.059564,-22.9056391]},"properties":{"nr_local":"1279","nr_zona":"0275","ano":2020,"total_votos":28761,"votos_campo":2331}},{"type":"Feature","geometry":{"type":"Point","coordinates":[-47.059564,-22.9056391]},"properties":{"nr_local":"1090","nr_zona":"0274","ano":2020,"total_votos":51245,"votos_campo":4272}},{"type":"Feature","geometry":{"type":"Point","coordinates":[-47.059564,-22.9056391]},"properties":{"nr_local":"1163","nr_zona":"0380","ano":2020,"total_votos":38414,"votos_campo":3719}},{"type":"Feature","geometry":{"type":"Point","coordinates":[-47.059564,-22.9056391]},"properties":{"nr_local":"1414","nr_zona":"0380","ano":2020,"total_votos":29354,"votos_campo":2213}},{"type":"Feature","geometry":{"type":"Point","coordinates":[-47.059564,-22.9056391]},"properties":{"nr_local":"1295","nr_zona":"0380","ano":2020,"total_votos":45374,"votos_campo":3543}},{"type":"Feature","geometry":{"type":"Point","coordinates":[-47.059564,-22.9056391]},"properties":{"nr_local":"1422","nr_zona":"0378","ano":2020,"total_votos":24010,"votos_campo":1981}},{"type":"Feature","geometry":{"type":"Point","coordinates":[-47.059564,-22.9056391]},"properties":{"nr_local":"1317","nr_zona":"0380","ano":2020,"total_votos":34547,"votos_campo":3307}},{"type":"Feature","geometry":{"type":"Point","coordinates":[-47.059564,-22.9056391]},"properties":{"nr_local":"1171","nr_zona":"0423","ano":2020,"total_votos":40564,"votos_campo":3866}},{"type":"Feature","geometry":{"type":"Point","coordinates":[-47.059564,-22.9056391]},"properties":{"nr_local":"1180","nr_zona":"0275","ano":2020,"total_votos":43686,"votos_campo":3674}},{"type":"Feature","geometry":{"type":"Point","coordinates":[-47.059564,-22.9056391]},"properties":{"nr_local":"1104","nr_zona":"0274","ano":2020,"total_votos":50523,"votos_campo":6065}},{"type":"Feature","geometry":{"type":"Point","coordinates":[-47.059564,-22.9056391]},"properties":{"nr_local":"1392","nr_zona":"0379","ano":2020,"total_votos":25381,"votos_campo":2445}},{"type":"Feature","geometry":{"type":"Point","coordinates":[-47.059564,-22.9056391]},"properties":{"nr_local":"1325","nr_zona":"0379","ano":2020,"total_votos":29678,"votos_campo":3042}},{"type":"Feature","geometry":{"type":"Point","coordinates":[-47.059564,-22.9056391]},"properties":{"nr_local":"1015","nr_zona":"0033","ano":2020,"total_votos":39126,"votos_campo":3549}},{"type":"Feature","geometry":{"type":"Point","coordinates":[-47.059564,-22.9056391]},"properties":{"nr_local":"1287","nr_zona":"0378","ano":2020,"total_votos":26797,"votos_campo":2666}},{"type":"Feature","geometry":{"type":"Point","coordinates":[-47.059564,-22.9056391]},"properties":{"nr_local":"1066","nr_zona":"0379","ano":2020,"total_votos":34877,"votos_campo":3361}},{"type":"Feature","geometry":{"type":"Point","coordinates":[-47.059564,-22.9056391]},"properties":{"nr_local":"1201","nr_zona":"0033","ano":2020,"total_votos":46698,"votos_campo":4312}},{"type":"Feature","geometry":{"type":"Point","coordinates":[-47.059564,-22.9056391]},"properties":{"nr_local":"2135","nr_zona":"0033","ano":2020,"total_votos":6242,"votos_campo":695}},{"type":"Feature","geometry":{"type":"Point","coordinates":[-47.059564,-22.9056391]},"properties":{"nr_local":"1040","nr_zona":"0033","ano":2020,"total_votos":34615,"votos_campo":3216}},{"type":"Feature","geometry":{"type":"Point","coordinates":[-47.059564,-22.9056391]},"properties":{"nr_local":"1198","nr_zona":"0274","ano":2020,"total_votos":49972,"votos_campo":4967}},{"type":"Feature","geometry":{"type":"Point","coordinates":[-47.059564,-22.9056391]},"properties":{"nr_local":"1554","nr_zona":"0275","ano":2020,"total_votos":11409,"votos_campo":995}},{"type":"Feature","geometry":{"type":"Point","coordinates":[-47.059564,-22.9056391]},"properties":{"nr_local":"1724","nr_zona":"0274","ano":2020,"total_votos":14202,"votos_campo":1167}},{"type":"Feature","geometry":{"type":"Point","coordinates":[-47.059564,-22.9056391]},"properties":{"nr_local":"1929","nr_zona":"0274","ano":2020,"total_votos":23699,"votos_campo":2298}},{"type":"Feature","geometry":{"type":"Point","coordinates":[-47.059564,-22.9056391]},"properties":{"nr_local":"1546","nr_zona":"0275","ano":2020,"total_votos":4565,"votos_campo":752}},{"type":"Feature","geometry":{"type":"Point","coordinates":[-47.059564,-22.9056391]},"properties":{"nr_local":"1244","nr_zona":"0380","ano":2020,"total_votos":25214,"votos_campo":1912}},{"type":"Feature","geometry":{"type":"Point","coordinates":[-47.059564,-22.9056391]},"properties":{"nr_local":"1384","nr_zona":"0379","ano":2020,"total_votos":14675,"votos_campo":1285}},{"type":"Feature","geometry":{"type":"Point","coordinates":[-47.059564,-22.9056391]},"properties":{"nr_local":"1058","nr_zona":"0379","ano":2020,"total_votos":43785,"votos_campo":4751}},{"type":"Feature","geometry":{"type":"Point","coordinates":[-47.059564,-22.9056391]},"properties":{"nr_local":"1430","nr_zona":"0378","ano":2020,"total_votos":21820,"votos_campo":1935}},{"type":"Feature","geometry":{"type":"Point","coordinates":[-47.059564,-22.9056391]},"properties":{"nr_local":"1899","nr_zona":"0274","ano":2020,"total_votos":7166,"votos_campo":813}},{"type":"Feature","geometry":{"type":"Point","coordinates":[-47.059564,-22.9056391]},"properties":{"nr_local":"1465","nr_zona":"0379","ano":2020,"total_votos":18677,"votos_campo":1814}},{"type":"Feature","geometry":{"type":"Point","coordinates":[-47.059564,-22.9056391]},"properties":{"nr_local":"1376","nr_zona":"0378","ano":2020,"total_votos":14543,"votos_campo":1290}},{"type":"Feature","geometry":{"type":"Point","coordinates":[-47.059564,-22.9056391]},"properties":{"nr_local":"1473","nr_zona":"0379","ano":2020,"total_votos":10918,"votos_campo":1130}},{"type":"Feature","geometry":{"type":"Point","coordinates":[-47.059564,-22.9056391]},"properties":{"nr_local":"1309","nr_zona":"0379","ano":2020,"total_votos":40581,"votos_campo":3839}},{"type":"Feature","geometry":{"type":"Point","coordinates":[-47.059564,-22.9056391]},"properties":{"nr_local":"1139","nr_zona":"0423","ano":2020,"total_votos":58731,"votos_campo":5536}},{"type":"Feature","geometry":{"type":"Point","coordinates":[-47.059564,-22.9056391]},"properties":{"nr_local":"2151","nr_zona":"0033","ano":2020,"total_votos":4422,"votos_campo":355}},{"type":"Feature","geometry":{"type":"Point","coordinates":[-47.059564,-22.9056391]},"properties":{"nr_local":"1023","nr_zona":"0379","ano":2020,"total_votos":36286,"votos_campo":3273}},{"type":"Feature","geometry":{"type":"Point","coordinates":[-47.059564,-22.9056391]},"properties":{"nr_local":"1481","nr_zona":"0274","ano":2020,"total_votos":21036,"votos_campo":1775}},{"type":"Feature","geometry":{"type":"Point","coordinates":[-47.059564,-22.9056391]},"properties":{"nr_local":"1031","nr_zona":"0423","ano":2020,"total_votos":24120,"votos_campo":1969}},{"type":"Feature","geometry":{"type":"Point","coordinates":[-47.059564,-22.9056391]},"properties":{"nr_local":"1350","nr_zona":"0275","ano":2020,"total_votos":20351,"votos_campo":1745}},{"type":"Feature","geometry":{"type":"Point","coordinates":[-47.059564,-22.9056391]},"properties":{"nr_local":"1457","nr_zona":"0275","ano":2020,"total_votos":16386,"votos_campo":1550}},{"type":"Feature","geometry":{"type":"Point","coordinates":[-47.059564,-22.9056391]},"properties":{"nr_local":"1872","nr_zona":"0274","ano":2020,"total_votos":14878,"votos_campo":1512}},{"type":"Feature","geometry":{"type":"Point","coordinates":[-47.059564,-22.9056391]},"properties":{"nr_local":"1252","nr_zona":"0378","ano":2020,"total_votos":21612,"votos_campo":1827}},{"type":"Feature","geometry":{"type":"Point","coordinates":[-47.059564,-22.9056391]},"properties":{"nr_local":"1490","nr_zona":"0378","ano":2020,"total_votos":6680,"votos_campo":656}},{"type":"Feature","geometry":{"type":"Point","coordinates":[-47.059564,-22.9056391]},"properties":{"nr_local":"1368","nr_zona":"0380","ano":2020,"total_votos":28499,"votos_campo":2336}},{"type":"Feature","geometry":{"type":"Point","coordinates":[-47.059564,-22.9056391]},"properties":{"nr_local":"1112","nr_zona":"0423","ano":2020,"total_votos":38099,"votos_campo":3220}},{"type":"Feature","geometry":{"type":"Point","coordinates":[-47.059564,-22.9056391]},"properties":{"nr_local":"1236","nr_zona":"0379","ano":2020,"total_votos":18962,"votos_campo":1604}},{"type":"Feature","geometry":{"type":"Point","coordinates":[-47.059564,-22.9056391]},"properties":{"nr_local":"1856","nr_zona":"0274","ano":2020,"total_votos":6441,"votos_campo":588}},{"type":"Feature","geometry":{"type":"Point","coordinates":[-47.059564,-22.9056391]},"properties":{"nr_local":"1333","nr_zona":"0380","ano":2020,"total_votos":14650,"votos_campo":1298}},{"type":"Feature","geometry":{"type":"Point","coordinates":[-47.059564,-22.9056391]},"properties":{"nr_local":"1120","nr_zona":"0033","ano":2020,"total_votos":39718,"votos_campo":3465}},{"type":"Feature","geometry":{"type":"Point","coordinates":[-47.059564,-22.9056391]},"properties":{"nr_local":"1074","nr_zona":"0275","ano":2020,"total_votos":39240,"votos_campo":4180}},{"type":"Feature","geometry":{"type":"Point","coordinates":[-47.059564,-22.9056391]},"properties":{"nr_local":"1988","nr_zona":"0275","ano":2020,"total_votos":489,"votos_campo":56}},{"type":"Feature","geometry":{"type":"Point","coordinates":[-47.059564,-22.9056391]},"properties":{"nr_local":"1147","nr_zona":"0033","ano":2020,"total_votos":36528,"votos_campo":3196}},{"type":"Feature","geometry":{"type":"Point","coordinates":[-47.059564,-22.9056391]},"properties":{"nr_local":"1538","nr_zona":"0275","ano":2020,"total_votos":10687,"votos_campo":864}},{"type":"Feature","geometry":{"type":"Point","coordinates":[-47.059564,-22.9056391]},"properties":{"nr_local":"1260","nr_zona":"0380","ano":2020,"total_votos":16908,"votos_campo":1187}},{"type":"Feature","geometry":{"type":"Point","coordinates":[-47.059564,-22.9056391]},"properties":{"nr_local":"1945","nr_zona":"0274","ano":2020,"total_votos":3283,"votos_campo":272}},{"type":"Feature","geometry":{"type":"Point","coordinates":[-47.059564,-22.9056391]},"properties":{"nr_local":"1686","nr_zona":"0274","ano":2020,"total_votos":5729,"votos_campo":462}},{"type":"Feature","geometry":{"type":"Point","coordinates":[-47.059564,-22.9056391]},"properties":{"nr_local":"1830","nr_zona":"0274","ano":2020,"total_votos":8308,"votos_campo":819}},{"type":"Feature","geometry":{"type":"Point","coordinates":[-47.059564,-22.9056391]},"properties":{"nr_local":"1406","nr_zona":"0379","ano":2020,"total_votos":14066,"votos_campo":1421}},{"type":"Feature","geometry":{"type":"Point","coordinates":[-47.059564,-22.9056391]},"properties":{"nr_local":"1910","nr_zona":"0275","ano":2020,"total_votos":6877,"votos_campo":725}},{"type":"Feature","geometry":{"type":"Point","coordinates":[-47.059564,-22.9056391]},"properties":{"nr_local":"1449","nr_zona":"0380","ano":2020,"total_votos":31873,"votos_campo":2837}},{"type":"Feature","geometry":{"type":"Point","coordinates":[-47.059564,-22.9056391]},"properties":{"nr_local":"1210","nr_zona":"0379","ano":2020,"total_votos":17825,"votos_campo":1611}},{"type":"Feature","geometry":{"type":"Point","coordinates":[-47.059564,-22.9056391]},"properties":{"nr_local":"1600","nr_zona":"0275","ano":2020,"total_votos":6300,"votos_campo":1026}},{"type":"Feature","geometry":{"type":"Point","coordinates":[-47.059564,-22.9056391]},"properties":{"nr_local":"1589","nr_zona":"0378","ano":2020,"total_votos":6058,"votos_campo":876}},{"type":"Feature","geometry":{"type":"Point","coordinates":[-47.059564,-22.9056391]},"properties":{"nr_local":"1520","nr_zona":"0379","ano":2020,"total_votos":11070,"votos_campo":1087}},{"type":"Feature","geometry":{"type":"Point","coordinates":[-47.059564,-22.9056391]},"properties":{"nr_local":"1864","nr_zona":"0274","ano":2020,"total_votos":7200,"votos_campo":592}},{"type":"Feature","geometry":{"type":"Point","coordinates":[-47.059564,-22.9056391]},"properties":{"nr_local":"1341","nr_zona":"0378","ano":2020,"total_votos":5675,"votos_campo":497}},{"type":"Feature","geometry":{"type":"Point","coordinates":[-47.059564,-22.9056391]},"properties":{"nr_local":"1228","nr_zona":"0423","ano":2020,"total_votos":7816,"votos_campo":748}},{"type":"Feature","geometry":{"type":"Point","coordinates":[-47.059564,-22.9056391]},"properties":{"nr_local":"1996","nr_zona":"0275","ano":2020,"total_votos":646,"votos_campo":73}},{"type":"Feature","geometry":{"type":"Point","coordinates":[-47.059564,-22.9056391]},"properties":{"nr_local":"1848","nr_zona":"0274","ano":2020,"total_votos":5057,"votos_campo":542}},{"type":"Feature","geometry":{"type":"Point","coordinates":[-47.059564,-22.9056391]},"properties":{"nr_local":"1597","nr_zona":"0378","ano":2020,"total_votos":1981,"votos_campo":219}},{"type":"Feature","geometry":{"type":"Point","coordinates":[-47.059564,-22.9056391]},"properties":{"nr_local":"1503","nr_zona":"0378","ano":2020,"total_votos":21400,"votos_campo":1793}},{"type":"Feature","geometry":{"type":"Point","coordinates":[-47.059564,-22.9056391]},"properties":{"nr_local":"1694","nr_zona":"0378","ano":2020,"total_votos":325,"votos_campo":31}},{"type":"Feature","geometry":{"type":"Point","coordinates":[-47.059564,-22.9056391]},"properties":{"nr_local":"1902","nr_zona":"0275","ano":2020,"total_votos":3186,"votos_campo":631}},{"type":"Feature","geometry":{"type":"Point","coordinates":[-47.059564,-22.9056391]},"properties":{"nr_local":"1511","nr_zona":"0378","ano":2020,"total_votos":4130,"votos_campo":315}},{"type":"Feature","geometry":{"type":"Point","coordinates":[-47.059564,-22.9056391]},"properties":{"nr_local":"1759","nr_zona":"0274","ano":2020,"total_votos":2374,"votos_campo":166}},{"type":"Feature","geometry":{"type":"Point","coordinates":[-47.059564,-22.9056391]},"properties":{"nr_local":"1660","nr_zona":"0378","ano":2020,"total_votos":3098,"votos_campo":326}}]}