{"type":"FeatureCollection","features":[{"type":"Feature","geometry":{"type":"Point","coordinates":[-47.1402912,-22.9723233]},"properties":{"nr_local":"1104","nr_zona":"0274","ano":2024,"total_votos":29638,"votos_campo":6841,"votos_thamy":113}},{"type":"Feature","geometry":{"type":"Point","coordinates":[-47.1449666,-22.8942063]},"properties":{"nr_local":"1112","nr_zona":"0274","ano":2024,"total_votos":21430,"votos_campo":2998,"votos_thamy":32}},{"type":"Feature","geometry":{"type":"Point","coordinates":[-46.9760309,-22.8841325]},"properties":{"nr_local":"1309","nr_zona":"0423","ano":2024,"total_votos":32152,"votos_campo":5062,"votos_thamy":43}},{"type":"Feature","geometry":{"type":"Point","coordinates":[-47.1224251,-22.9452875]},"properties":{"nr_local":"1201","nr_zona":"0423","ano":2024,"total_votos":32710,"votos_campo":5561,"votos_thamy":56}},{"type":"Feature","geometry":{"type":"Point","coordinates":[-47.0873837,-22.9319607]},"properties":{"nr_local":"1180","nr_zona":"0275","ano":2024,"total_votos":30670,"votos_campo":4827,"votos_thamy":68}},{"type":"Feature","geometry":{"type":"Point","coordinates":[-47.0950043,-22.9647092]},"properties":{"nr_local":"1538","nr_zona":"0275","ano":2024,"total_votos":5128,"votos_campo":603,"votos_thamy":1}},{"type":"Feature","geometry":{"type":"Point","coordinates":[-47.0612683,-22.8588753]},"properties":{"nr_local":"1457","nr_zona":"0275","ano":2024,"total_votos":12194,"votos_campo":1959,"votos_thamy":24}},{"type":"Feature","geometry":{"type":"Point","coordinates":[-47.0616,-22.9064]},"properties":{"nr_local":"1066","nr_zona":"0423","ano":2024,"total_votos":24508,"votos_campo":4439,"votos_thamy":87}},{"type":"Feature","geometry":{"type":"Point","coordinates":[-47.054197,-22.9230302]},"properties":{"nr_local":"1155","nr_zona":"0380","ano":2024,"total_votos":31408,"votos_campo":4216,"votos_thamy":28}},{"type":"Feature","geometry":{"type":"Point","coordinates":[-47.0356543,-22.9345505]},"properties":{"nr_local":"1872","nr_zona":"0275","ano":2024,"total_votos":10236,"votos_campo":1606,"votos_thamy":23}},{"type":"Feature","geometry":{"type":"Point","coordinates":[-47.1004165,-22.983569]},"properties":{"nr_local":"1368","nr_zona":"0380","ano":2024,"total_votos":14254,"votos_campo":1997,"votos_thamy":14}},{"type":"Feature","geometry":{"type":"Point","coordinates":[-47.0616,-22.9064]},"properties":{"nr_local":"1198","nr_zona":"0378","ano":2024,"total_votos":34694,"votos_campo":5490,"votos_thamy":62}},{"type":"Feature","geometry":{"type":"Point","coordinates":[-47.0503261,-22.8943716]},"properties":{"nr_local":"1015","nr_zona":"0033","ano":2024,"total_votos":24184,"votos_campo":3757,"votos_thamy":35}},{"type":"Feature","geometry":{"type":"Point","coordinates":[-47.151634,-22.8674823]},"properties":{"nr_local":"1414","nr_zona":"0379","ano":2024,"total_votos":24688,"votos_campo":3295,"votos_thamy":22}},{"type":"Feature","geometry":{"type":"Point","coordinates":[-47.1499056,-22.8976312]},"properties":{"nr_local":"1074","nr_zona":"0033","ano":2024,"total_votos":27244,"votos_campo":5443,"votos_thamy":97}},{"type":"Feature","geometry":{"type":"Point","coordinates":[-47.0359338,-22.858889]},"properties":{"nr_local":"1317","nr_zona":"0379","ano":2024,"total_votos":17468,"votos_campo":2956,"votos_thamy":20}},{"type":"Feature","geometry":{"type":"Point","coordinates":[-47.0254278,-22.947271]},"properties":{"nr_local":"1481","nr_zona":"0380","ano":2024,"total_votos":11628,"votos_campo":1934,"votos_thamy":16}},{"type":"Feature","geometry":{"type":"Point","coordinates":[-47.1486902,-22.9784626]},"properties":{"nr_local":"1490","nr_zona":"0379","ano":2024,"total_votos":5044,"votos_campo":763,"votos_thamy":10}},{"type":"Feature","geometry":{"type":"Point","coordinates":[-47.2168798,-22.9600697]},"properties":{"nr_local":"1228","nr_zona":"0379","ano":2024,"total_votos":3552,"votos_campo":367,"votos_thamy":2}},{"type":"Feature","geometry":{"type":"Point","coordinates":[-47.085441,-22.893859]},"properties":{"nr_local":"1465","nr_zona":"0380","ano":2024,"total_votos":13228,"votos_campo":2212,"votos_thamy":20}},{"type":"Feature","geometry":{"type":"Point","coordinates":[-47.1223218,-22.8886166]},"properties":{"nr_local":"1120","nr_zona":"0274","ano":2024,"total_votos":18850,"votos_campo":3111,"votos_thamy":18}},{"type":"Feature","geometry":{"type":"Point","coordinates":[-47.0708398,-22.7919104]},"properties":{"nr_local":"1546","nr_zona":"0275","ano":2024,"total_votos":9878,"votos_campo":1886,"votos_thamy":31}},{"type":"Feature","geometry":{"type":"Point","coordinates":[-46.9760309,-22.8841325]},"properties":{"nr_local":"1139","nr_zona":"0033","ano":2024,"total_votos":24214,"votos_campo":4495,"votos_thamy":55}},{"type":"Feature","geometry":{"type":"Point","coordinates":[-47.136499,-22.978587]},"properties":{"nr_local":"1252","nr_zona":"0378","ano":2024,"total_votos":15314,"votos_campo":2516,"votos_thamy":21}},{"type":"Feature","geometry":{"type":"Point","coordinates":[-47.0681639,-22.9145125]},"properties":{"nr_local":"1147","nr_zona":"0380","ano":2024,"total_votos":9502,"votos_campo":1369,"votos_thamy":16}},{"type":"Feature","geometry":{"type":"Point","coordinates":[-47.0916928,-22.818047]},"properties":{"nr_local":"1058","nr_zona":"0378","ano":2024,"total_votos":29754,"votos_campo":5882,"votos_thamy":89}},{"type":"Feature","geometry":{"type":"Point","coordinates":[-47.1278076,-22.9754476]},"properties":{"nr_local":"1082","nr_zona":"0378","ano":2024,"total_votos":25504,"votos_campo":4193,"votos_thamy":42}},{"type":"Feature","geometry":{"type":"Point","coordinates":[-47.1870024,-22.9400851]},"properties":{"nr_local":"1325","nr_zona":"0379","ano":2024,"total_votos":18526,"votos_campo":3226,"votos_thamy":31}},{"type":"Feature","geometry":{"type":"Point","coordinates":[-47.0449363,-22.9115758]},"properties":{"nr_local":"1171","nr_zona":"0274","ano":2024,"total_votos":26690,"votos_campo":4413,"votos_thamy":45}},{"type":"Feature","geometry":{"type":"Point","coordinates":[-47.119025,-22.8903927]},"properties":{"nr_local":"1090","nr_zona":"0380","ano":2024,"total_votos":29954,"votos_campo":4339,"votos_thamy":35}},{"type":"Feature","geometry":{"type":"Point","coordinates":[-47.0439486,-22.8621257]},"properties":{"nr_local":"1929","nr_zona":"0275","ano":2024,"total_votos":16086,"votos_campo":2828,"votos_thamy":36}},{"type":"Feature","geometry":{"type":"Point","coordinates":[-47.0909386,-22.8237837]},"properties":{"nr_local":"1589","nr_zona":"0275","ano":2024,"total_votos":6960,"votos_campo":1604,"votos_thamy":26}},{"type":"Feature","geometry":{"type":"Point","coordinates":[-47.098445,-22.9118793]},"properties":{"nr_local":"1295","nr_zona":"0380","ano":2024,"total_votos":32748,"votos_campo":4626,"votos_thamy":46}},{"type":"Feature","geometry":{"type":"Point","coordinates":[-47.1132622,-22.9670944]},"properties":{"nr_local":"1384","nr_zona":"0378","ano":2024,"total_votos":10940,"votos_campo":1468,"votos_thamy":11}},{"type":"Feature","geometry":{"type":"Point","coordinates":[-47.0983115,-22.9039688]},"properties":{"nr_local":"1350","nr_zona":"0380","ano":2024,"total_votos":14040,"votos_campo":2186,"votos_thamy":26}},{"type":"Feature","geometry":{"type":"Point","coordinates":[-47.1364628,-22.9768521]},"properties":{"nr_local":"1279","nr_zona":"0378","ano":2024,"total_votos":12804,"votos_campo":1970,"votos_thamy":24}},{"type":"Feature","geometry":{"type":"Point","coordinates":[-47.1157393,-23.0305406]},"properties":{"nr_local":"1163","nr_zona":"0274","ano":2024,"total_votos":26624,"votos_campo":3975,"votos_thamy":41}},{"type":"Feature","geometry":{"type":"Point","coordinates":[-47.1178808,-22.9453235]},"properties":{"nr_local":"1422","nr_zona":"0380","ano":2024,"total_votos":18498,"votos_campo":2742,"votos_thamy":50}},{"type":"Feature","geometry":{"type":"Point","coordinates":[-47.1866038,-22.9518836]},"properties":{"nr_local":"1341","nr_zona":"0379","ano":2024,"total_votos":8694,"votos_campo":1223,"votos_thamy":7}},{"type":"Feature","geometry":{"type":"Point","coordinates":[-47.0616,-22.9064]},"properties":{"nr_local":"1031","nr_zona":"0380","ano":2024,"total_votos":15684,"votos_campo":2298,"votos_thamy":19}},{"type":"Feature","geometry":{"type":"Point","coordinates":[-47.0616,-22.9064]},"properties":{"nr_local":"1759","nr_zona":"0274","ano":2024,"total_votos":1754,"votos_campo":224,"votos_thamy":3}},{"type":"Feature","geometry":{"type":"Point","coordinates":[-47.1367922,-22.9369786]},"properties":{"nr_local":"1430","nr_zona":"0380","ano":2024,"total_votos":16232,"votos_campo":2254,"votos_thamy":8}},{"type":"Feature","geometry":{"type":"Point","coordinates":[-47.1034374,-22.9394149]},"properties":{"nr_local":"1023","nr_zona":"0423","ano":2024,"total_votos":19206,"votos_campo":3592,"votos_thamy":32}},{"type":"Feature","geometry":{"type":"Point","coordinates":[-47.1386093,-22.9919922]},"properties":{"nr_local":"1376","nr_zona":"0378","ano":2024,"total_votos":14066,"votos_campo":1739,"votos_thamy":18}},{"type":"Feature","geometry":{"type":"Point","coordinates":[-47.0497121,-22.8980771]},"properties":{"nr_local":"2135","nr_zona":"0033","ano":2024,"total_votos":4648,"votos_campo":1030,"votos_thamy":8}},{"type":"Feature","geometry":{"type":"Point","coordinates":[-47.0372577,-22.8495257]},"properties":{"nr_local":"1503","nr_zona":"0379","ano":2024,"total_votos":8418,"votos_campo":1324,"votos_thamy":21}},{"type":"Feature","geometry":{"type":"Point","coordinates":[-47.0213533,-22.9172933]},"properties":{"nr_local":"1210","nr_zona":"0379","ano":2024,"total_votos":9248,"votos_campo":1439,"votos_thamy":13}},{"type":"Feature","geometry":{"type":"Point","coordinates":[-47.085241,-22.8980947]},"properties":{"nr_local":"1392","nr_zona":"0378","ano":2024,"total_votos":19068,"votos_campo":3229,"votos_thamy":22}},{"type":"Feature","geometry":{"type":"Point","coordinates":[-47.1415002,-22.9718604]},"properties":{"nr_local":"1686","nr_zona":"0274","ano":2024,"total_votos":4350,"votos_campo":626,"votos_thamy":4}},{"type":"Feature","geometry":{"type":"Point","coordinates":[-47.0749843,-22.8258066]},"properties":{"nr_local":"1880","nr_zona":"0275","ano":2024,"total_votos":6290,"votos_campo":2037,"votos_thamy":58}},{"type":"Feature","geometry":{"type":"Point","coordinates":[-47.1619263,-22.9654531]},"properties":{"nr_local":"1449","nr_zona":"0275","ano":2024,"total_votos":17160,"votos_campo":2939,"votos_thamy":34}},{"type":"Feature","geometry":{"type":"Point","coordinates":[-47.1096348,-22.9333917]},"properties":{"nr_local":"1040","nr_zona":"0378","ano":2024,"total_votos":24280,"votos_campo":3863,"votos_thamy":33}},{"type":"Feature","geometry":{"type":"Point","coordinates":[-47.0961189,-22.9302629]},"properties":{"nr_local":"1597","nr_zona":"0378","ano":2024,"total_votos":1844,"votos_campo":299,"votos_thamy":5}},{"type":"Feature","geometry":{"type":"Point","coordinates":[-47.0586452,-22.8804835]},"properties":{"nr_local":"1724","nr_zona":"0274","ano":2024,"total_votos":9922,"votos_campo":1581,"votos_thamy":16}},{"type":"Feature","geometry":{"type":"Point","coordinates":[-47.0886003,-22.920298]},"properties":{"nr_local":"1260","nr_zona":"0378","ano":2024,"total_votos":8902,"votos_campo":1175,"votos_thamy":17}},{"type":"Feature","geometry":{"type":"Point","coordinates":[-47.1454026,-22.8851048]},"properties":{"nr_local":"1287","nr_zona":"0378","ano":2024,"total_votos":15676,"votos_campo":2401,"votos_thamy":24}},{"type":"Feature","geometry":{"type":"Point","coordinates":[-47.0468131,-22.928193]},"properties":{"nr_local":"1848","nr_zona":"0274","ano":2024,"total_votos":1654,"votos_campo":345,"votos_thamy":6}},{"type":"Feature","geometry":{"type":"Point","coordinates":[-47.0940896,-22.9321799]},"properties":{"nr_local":"1333","nr_zona":"0380","ano":2024,"total_votos":14830,"votos_campo":2315,"votos_thamy":25}},{"type":"Feature","geometry":{"type":"Point","coordinates":[-47.1079495,-22.9736544]},"properties":{"nr_local":"1406","nr_zona":"0380","ano":2024,"total_votos":11996,"votos_campo":1861,"votos_thamy":9}},{"type":"Feature","geometry":{"type":"Point","coordinates":[-47.091576,-22.9359335]},"properties":{"nr_local":"1554","nr_zona":"0275","ano":2024,"total_votos":15560,"votos_campo":2194,"votos_thamy":16}},{"type":"Feature","geometry":{"type":"Point","coordinates":[-47.0616,-22.9064]},"properties":{"nr_local":"1899","nr_zona":"0274","ano":2024,"total_votos":5306,"votos_campo":1107,"votos_thamy":23}},{"type":"Feature","geometry":{"type":"Point","coordinates":[-47.0616,-22.9064]},"properties":{"nr_local":"1236","nr_zona":"0379","ano":2024,"total_votos":9238,"votos_campo":1500,"votos_thamy":8}},{"type":"Feature","geometry":{"type":"Point","coordinates":[-47.0616,-22.9064]},"properties":{"nr_local":"1902","nr_zona":"0275","ano":2024,"total_votos":2886,"votos_campo":1272,"votos_thamy":37}},{"type":"Feature","geometry":{"type":"Point","coordinates":[-47.0410726,-22.940068]},"properties":{"nr_local":"1856","nr_zona":"0274","ano":2024,"total_votos":3060,"votos_campo":524,"votos_thamy":5}},{"type":"Feature","geometry":{"type":"Point","coordinates":[-47.1326861,-22.9555585]},"properties":{"nr_local":"1520","nr_zona":"0379","ano":2024,"total_votos":8848,"votos_campo":1356,"votos_thamy":9}},{"type":"Feature","geometry":{"type":"Point","coordinates":[-47.0605833,-22.8666281]},"properties":{"nr_local":"1910","nr_zona":"0275","ano":2024,"total_votos":9588,"votos_campo":1659,"votos_thamy":30}},{"type":"Feature","geometry":{"type":"Point","coordinates":[-47.061008,-22.9074429]},"properties":{"nr_local":"2151","nr_zona":"0033","ano":2024,"total_votos":2952,"votos_campo":515,"votos_thamy":3}},{"type":"Feature","geometry":{"type":"Point","coordinates":[-47.0891757,-22.9267097]},"properties":{"nr_local":"1244","nr_zona":"0380","ano":2024,"total_votos":10452,"votos_campo":1504,"votos_thamy":21}},{"type":"Feature","geometry":{"type":"Point","coordinates":[-47.033105,-22.9500883]},"properties":{"nr_local":"1830","nr_zona":"0274","ano":2024,"total_votos":6396,"votos_campo":1132,"votos_thamy":20}},{"type":"Feature","geometry":{"type":"Point","coordinates":[-47.1661866,-22.9307354]},"properties":{"nr_local":"1473","nr_zona":"0379","ano":2024,"total_votos":1632,"votos_campo":272,"votos_thamy":0}},{"type":"Feature","geometry":{"type":"Point","coordinates":[-47.1124719,-23.0395177]},"properties":{"nr_local":"1660","nr_zona":"0378","ano":2024,"total_votos":5032,"votos_campo":751,"votos_thamy":4}},{"type":"Feature","geometry":{"type":"Point","coordinates":[-47.0616,-22.9064]},"properties":{"nr_local":"1600","nr_zona":"0275","ano":2024,"total_votos":4950,"votos_campo":1728,"votos_thamy":48}},{"type":"Feature","geometry":{"type":"Point","coordinates":[-47.0340294,-22.813504]},"properties":{"nr_local":"1864","nr_zona":"0274","ano":2024,"total_votos":1540,"votos_campo":287,"votos_thamy":1}},{"type":"Feature","geometry":{"type":"Point","coordinates":[-47.0616,-22.9064]},"properties":{"nr_local":"1511","nr_zona":"0379","ano":2024,"total_votos":3954,"votos_campo":535,"votos_thamy":6}},{"type":"Feature","geometry":{"type":"Point","coordinates":[-47.142736,-22.8337177]},"properties":{"nr_local":"1988","nr_zona":"0275","ano":2024,"total_votos":9828,"votos_campo":1247,"votos_thamy":21}},{"type":"Feature","geometry":{"type":"Point","coordinates":[-47.0515456,-22.9597308]},"properties":{"nr_local":"1945","nr_zona":"0274","ano":2024,"total_votos":1192,"votos_campo":206,"votos_thamy":3}},{"type":"Feature","geometry":{"type":"Point","coordinates":[-47.0616,-22.9064]},"properties":{"nr_local":"1996","nr_zona":"0275","ano":2024,"total_votos":6184,"votos_campo":815,"votos_thamy":15}},{"type":"Feature","geometry":{"type":"Point","coordinates":[-47.1243893,-22.9739235]},"properties":{"nr_local":"1694","nr_zona":"0378","ano":2024,"total_votos":642,"votos_campo":88,"votos_thamy":1}},{"type":"Feature","geometry":{"type":"Point","coordinates":[-47.1072229,-22.8458811]},"properties":{"nr_local":"2003","nr_zona":"0275","ano":2024,"total_votos":4016,"votos_campo":427,"votos_thamy":2}},{"type":"Feature","geometry":{"type":"Point","coordinates":[-47.0906109,-22.9531008]},"properties":{"nr_local":"1570","nr_zona":"0379","ano":2024,"total_votos":5688,"votos_campo":711,"votos_thamy":8}},{"type":"Feature","geometry":{"type":"Point","coordinates":[-47.0616,-22.9064]},"properties":{"nr_local":"2259","nr_zona":"0033","ano":2024,"total_votos":8722,"votos_campo":1494,"votos_thamy":11}},{"type":"Feature","geometry":{"type":"Point","coordinates":[-47.0616,-22.9064]},"properties":{"nr_local":"2267","nr_zona":"0033","ano":2024,"total_votos":2672,"votos_campo":466,"votos_thamy":4}},{"type":"Feature","geometry":{"type":"Point","coordinates":[-47.0616,-22.9064]},"properties":{"nr_local":"2038","nr_zona":"0274","ano":2024,"total_votos":4730,"votos_campo":758,"votos_thamy":4}},{"type":"Feature","geometry":{"type":"Point","coordinates":[-47.0616,-22.9064]},"properties":{"nr_local":"1970","nr_zona":"0274","ano":2024,"total_votos":2632,"votos_campo":310,"votos_thamy":3}},{"type":"Feature","geometry":{"type":"Point","coordinates":[-47.0616,-22.9064]},"properties":{"nr_local":"2330","nr_zona":"0033","ano":2024,"total_votos":5046,"votos_campo":877,"votos_thamy":5}},{"type":"Feature","geometry":{"type":"Point","coordinates":[-47.0616,-22.9064]},"properties":{"nr_local":"2062","nr_zona":"0274","ano":2024,"total_votos":7102,"votos_campo":1038,"votos_thamy":5}},{"type":"Feature","geometry":{"type":"Point","coordinates":[-47.0771071,-22.9645612]},"properties":{"nr_local":"1562","nr_zona":"0379","ano":2024,"total_votos":4370,"votos_campo":553,"votos_thamy":4}},{"type":"Feature","geometry":{"type":"Point","coordinates":[-47.0616,-22.9064]},"properties":{"nr_local":"2020","nr_zona":"0274","ano":2024,"total_votos":5586,"votos_campo":803,"votos_thamy":4}},{"type":"Feature","geometry":{"type":"Point","coordinates":[-47.0616,-22.9064]},"properties":{"nr_local":"2372","nr_zona":"0033","ano":2024,"total_votos":5012,"votos_campo":614,"votos_thamy":4}},{"type":"Feature","geometry":{"type":"Point","coordinates":[-47.0616,-22.9064]},"properties":{"nr_local":"2364","nr_zona":"0033","ano":2024,"total_votos":3602,"votos_campo":614,"votos_thamy":2}},{"type":"Feature","geometry":{"type":"Point","coordinates":[-47.0616,-22.9064]},"properties":{"nr_local":"2380","nr_zona":"0033","ano":2024,"total_votos":2994,"votos_campo":529,"votos_thamy":3}},{"type":"Feature","geometry":{"type":"Point","coordinates":[-47.0616,-22.9064]},"properties":{"nr_local":"2321","nr_zona":"0033","ano":2024,"total_votos":4826,"votos_campo":814,"votos_thamy":8}},{"type":"Feature","geometry":{"type":"Point","coordinates":[-47.0681371,-22.8849222]},"properties":{"nr_local":"1961","nr_zona":"0274","ano":2024,"total_votos":4652,"votos_campo":697,"votos_thamy":5}},{"type":"Feature","geometry":{"type":"Point","coordinates":[-47.0616,-22.9064]},"properties":{"nr_local":"2410","nr_zona":"0033","ano":2024,"total_votos":1870,"votos_campo":376,"votos_thamy":10}},{"type":"Feature","geometry":{"type":"Point","coordinates":[-47.0616,-22.9064]},"properties":{"nr_local":"2291","nr_zona":"0033","ano":2024,"total_votos":5166,"votos_campo":1032,"votos_thamy":14}},{"type":"Feature","geometry":{"type":"Point","coordinates":[-47.0616,-22.9064]},"properties":{"nr_local":"2305","nr_zona":"0033","ano":2024,"total_votos":2100,"votos_campo":381,"votos_thamy":2}},{"type":"Feature","geometry":{"type":"Point","coordinates":[-47.0616,-22.9064]},"properties":{"nr_local":"2356","nr_zona":"0033","ano":2024,"total_votos":5026,"votos_campo":798,"votos_thamy":8}},{"type":"Feature","geometry":{"type":"Point","coordinates":[-47.0616,-22.9064]},"properties":{"nr_local":"2348","nr_zona":"0033","ano":2024,"total_votos":5902,"votos_campo":935,"votos_thamy":7}},{"type":"Feature","geometry":{"type":"Point","coordinates":[-47.0616,-22.9064]},"properties":{"nr_local":"2313","nr_zona":"0033","ano":2024,"total_votos":5730,"votos_campo":796,"votos_thamy":12}},{"type":"Feature","geometry":{"type":"Point","coordinates":[-47.0616,-22.9064]},"properties":{"nr_local":"2283","nr_zona":"0033","ano":2024,"total_votos":4128,"votos_campo":886,"votos_thamy":11}},{"type":"Feature","geometry":{"type":"Point","coordinates":[-47.0616,-22.9064]},"properties":{"nr_local":"2046","nr_zona":"0274","ano":2024,"total_votos":2664,"votos_campo":359,"votos_thamy":7}},{"type":"Feature","geometry":{"type":"Point","coordinates":[-47.0616,-22.9064]},"properties":{"nr_local":"2275","nr_zona":"0033","ano":2024,"total_votos":4482,"votos_campo":916,"votos_thamy":8}},{"type":"Feature","geometry":{"type":"Point","coordinates":[-47.0616,-22.9064]},"properties":{"nr_local":"2402","nr_zona":"0033","ano":2024,"total_votos":2554,"votos_campo":519,"votos_thamy":6}},{"type":"Feature","geometry":{"type":"Point","coordinates":[-47.0616,-22.9064]},"properties":{"nr_local":"2089","nr_zona":"0274","ano":2024,"total_votos":3404,"votos_campo":488,"votos_thamy":4}},{"type":"Feature","geometry":{"type":"Point","coordinates":[-47.0616,-22.9064]},"properties":{"nr_local":"2054","nr_zona":"0274","ano":2024,"total_votos":2184,"votos_campo":295,"votos_thamy":3}},{"type":"Feature","geometry":{"type":"Point","coordinates":[-47.0616,-22.9064]},"properties":{"nr_local":"2399","nr_zona":"0033","ano":2024,"total_votos":1986,"votos_campo":384,"votos_thamy":9}},{"type":"Feature","geometry":{"type":"Point","coordinates":[-47.0616,-22.9064]},"properties":{"nr_local":"2070","nr_zona":"0274","ano":2024,"total_votos":1948,"votos_campo":254,"votos_thamy":5}},{"type":"Feature","geometry":{"type":"Point","coordinates":[-47.0616,-22.9064]},"properties":{"nr_local":"2011","nr_zona":"0274","ano":2024,"total_votos":458,"votos_campo":69,"votos_thamy":0}},{"type":"Feature","geometry":{"type":"Point","coordinates":[-47.0616,-22.9064]},"properties":{"nr_local":"2097","nr_zona":"0274","ano":2024,"total_votos":4008,"votos_campo":560,"votos_thamy":4}}]}