{"type":"FeatureCollection","features":[{"type":"Feature","geometry":{"type":"Point","coordinates":[-47.059564,-22.9056391]},"properties":{"nr_local":"1880","nr_zona":"0274","ano":2018,"total_votos":16658,"votos_campo":2954}},{"type":"Feature","geometry":{"type":"Point","coordinates":[-47.059564,-22.9056391]},"properties":{"nr_local":"1082","nr_zona":"0423","ano":2018,"total_votos":95843,"votos_campo":12399}},{"type":"Feature","geometry":{"type":"Point","coordinates":[-47.059564,-22.9056391]},"properties":{"nr_local":"1155","nr_zona":"0380","ano":2018,"total_votos":117174,"votos_campo":14008}},{"type":"Feature","geometry":{"type":"Point","coordinates":[-47.059564,-22.9056391]},"properties":{"nr_local":"1279","nr_zona":"0275","ano":2018,"total_votos":58415,"votos_campo":7034}},{"type":"Feature","geometry":{"type":"Point","coordinates":[-47.059564,-22.9056391]},"properties":{"nr_local":"1090","nr_zona":"0274","ano":2018,"total_votos":122064,"votos_campo":14261}},{"type":"Feature","geometry":{"type":"Point","coordinates":[-47.059564,-22.9056391]},"properties":{"nr_local":"1163","nr_zona":"0380","ano":2018,"total_votos":87700,"votos_campo":12400}},{"type":"Feature","geometry":{"type":"Point","coordinates":[-47.059564,-22.9056391]},"properties":{"nr_local":"1414","nr_zona":"0380","ano":2018,"total_votos":67280,"votos_campo":8870}},{"type":"Feature","geometry":{"type":"Point","coordinates":[-47.059564,-22.9056391]},"properties":{"nr_local":"1317","nr_zona":"0380","ano":2018,"total_votos":78984,"votos_campo":10885}},{"type":"Feature","geometry":{"type":"Point","coordinates":[-47.059564,-22.9056391]},"properties":{"nr_local":"1171","nr_zona":"0423","ano":2018,"total_votos":95877,"votos_campo":12575}},{"type":"Feature","geometry":{"type":"Point","coordinates":[-47.059564,-22.9056391]},"properties":{"nr_local":"1180","nr_zona":"0275","ano":2018,"total_votos":104167,"votos_campo":11614}},{"type":"Feature","geometry":{"type":"Point","coordinates":[-47.059564,-22.9056391]},"properties":{"nr_local":"1104","nr_zona":"0274","ano":2018,"total_votos":124117,"votos_campo":19560}},{"type":"Feature","geometry":{"type":"Point","coordinates":[-47.059564,-22.9056391]},"properties":{"nr_local":"1392","nr_zona":"0379","ano":2018,"total_votos":60758,"votos_campo":7524}},{"type":"Feature","geometry":{"type":"Point","coordinates":[-47.059564,-22.9056391]},"properties":{"nr_local":"1325","nr_zona":"0379","ano":2018,"total_votos":68555,"votos_campo":9463}},{"type":"Feature","geometry":{"type":"Point","coordinates":[-47.059564,-22.9056391]},"properties":{"nr_local":"1015","nr_zona":"0033","ano":2018,"total_votos":98326,"votos_campo":11186}},{"type":"Feature","geometry":{"type":"Point","coordinates":[-47.059564,-22.9056391]},"properties":{"nr_local":"1244","nr_zona":"0379","ano":2018,"total_votos":56133,"votos_campo":7263}},{"type":"Feature","geometry":{"type":"Point","coordinates":[-47.059564,-22.9056391]},"properties":{"nr_local":"1287","nr_zona":"0378","ano":2018,"total_votos":59834,"votos_campo":9414}},{"type":"Feature","geometry":{"type":"Point","coordinates":[-47.059564,-22.9056391]},"properties":{"nr_local":"1066","nr_zona":"0379","ano":2018,"total_votos":84131,"votos_campo":10863}},{"type":"Feature","geometry":{"type":"Point","coordinates":[-47.059564,-22.9056391]},"properties":{"nr_local":"1201","nr_zona":"0033","ano":2018,"total_votos":114627,"votos_campo":13946}},{"type":"Feature","geometry":{"type":"Point","coordinates":[-47.059564,-22.9056391]},"properties":{"nr_local":"2135","nr_zona":"0033","ano":2018,"total_votos":14961,"votos_campo":1922}},{"type":"Feature","geometry":{"type":"Point","coordinates":[-47.059564,-22.9056391]},"properties":{"nr_local":"1040","nr_zona":"0033","ano":2018,"total_votos":81894,"votos_campo":11706}},{"type":"Feature","geometry":{"type":"Point","coordinates":[-47.059564,-22.9056391]},"properties":{"nr_local":"1198","nr_zona":"0274","ano":2018,"total_votos":118757,"votos_campo":14411}},{"type":"Feature","geometry":{"type":"Point","coordinates":[-47.059564,-22.9056391]},"properties":{"nr_local":"1554","nr_zona":"0275","ano":2018,"total_votos":23676,"votos_campo":2926}},{"type":"Feature","geometry":{"type":"Point","coordinates":[-47.059564,-22.9056391]},"properties":{"nr_local":"1724","nr_zona":"0274","ano":2018,"total_votos":34355,"votos_campo":3611}},{"type":"Feature","geometry":{"type":"Point","coordinates":[-47.059564,-22.9056391]},"properties":{"nr_local":"1929","nr_zona":"0274","ano":2018,"total_votos":53802,"votos_campo":6035}},{"type":"Feature","geometry":{"type":"Point","coordinates":[-47.059564,-22.9056391]},"properties":{"nr_local":"1546","nr_zona":"0275","ano":2018,"total_votos":10533,"votos_campo":1879}},{"type":"Feature","geometry":{"type":"Point","coordinates":[-47.059564,-22.9056391]},"properties":{"nr_local":"1384","nr_zona":"0379","ano":2018,"total_votos":34424,"votos_campo":4349}},{"type":"Feature","geometry":{"type":"Point","coordinates":[-47.059564,-22.9056391]},"properties":{"nr_local":"1058","nr_zona":"0379","ano":2018,"total_votos":106235,"votos_campo":15439}},{"type":"Feature","geometry":{"type":"Point","coordinates":[-47.059564,-22.9056391]},"properties":{"nr_local":"1430","nr_zona":"0378","ano":2018,"total_votos":48694,"votos_campo":7237}},{"type":"Feature","geometry":{"type":"Point","coordinates":[-47.059564,-22.9056391]},"properties":{"nr_local":"1899","nr_zona":"0274","ano":2018,"total_votos":14547,"votos_campo":1914}},{"type":"Feature","geometry":{"type":"Point","coordinates":[-47.059564,-22.9056391]},"properties":{"nr_local":"1503","nr_zona":"0379","ano":2018,"total_votos":46758,"votos_campo":6031}},{"type":"Feature","geometry":{"type":"Point","coordinates":[-47.059564,-22.9056391]},"properties":{"nr_local":"1465","nr_zona":"0379","ano":2018,"total_votos":43130,"votos_campo":5778}},{"type":"Feature","geometry":{"type":"Point","coordinates":[-47.059564,-22.9056391]},"properties":{"nr_local":"1376","nr_zona":"0378","ano":2018,"total_votos":34809,"votos_campo":4509}},{"type":"Feature","geometry":{"type":"Point","coordinates":[-47.059564,-22.9056391]},"properties":{"nr_local":"1473","nr_zona":"0379","ano":2018,"total_votos":24141,"votos_campo":3939}},{"type":"Feature","geometry":{"type":"Point","coordinates":[-47.059564,-22.9056391]},"properties":{"nr_local":"1309","nr_zona":"0379","ano":2018,"total_votos":93938,"votos_campo":13483}},{"type":"Feature","geometry":{"type":"Point","coordinates":[-47.059564,-22.9056391]},"properties":{"nr_local":"1422","nr_zona":"0378","ano":2018,"total_votos":55039,"votos_campo":7762}},{"type":"Feature","geometry":{"type":"Point","coordinates":[-47.059564,-22.9056391]},"properties":{"nr_local":"1139","nr_zona":"0423","ano":2018,"total_votos":139032,"votos_campo":18907}},{"type":"Feature","geometry":{"type":"Point","coordinates":[-47.059564,-22.9056391]},"properties":{"nr_local":"2151","nr_zona":"0033","ano":2018,"total_votos":11598,"votos_campo":1418}},{"type":"Feature","geometry":{"type":"Point","coordinates":[-47.059564,-22.9056391]},"properties":{"nr_local":"1023","nr_zona":"0379","ano":2018,"total_votos":88147,"votos_campo":11376}},{"type":"Feature","geometry":{"type":"Point","coordinates":[-47.059564,-22.9056391]},"properties":{"nr_local":"1481","nr_zona":"0274","ano":2018,"total_votos":43947,"votos_campo":6181}},{"type":"Feature","geometry":{"type":"Point","coordinates":[-47.059564,-22.9056391]},"properties":{"nr_local":"1031","nr_zona":"0423","ano":2018,"total_votos":58306,"votos_campo":6632}},{"type":"Feature","geometry":{"type":"Point","coordinates":[-47.059564,-22.9056391]},"properties":{"nr_local":"1350","nr_zona":"0275","ano":2018,"total_votos":48697,"votos_campo":4666}},{"type":"Feature","geometry":{"type":"Point","coordinates":[-47.059564,-22.9056391]},"properties":{"nr_local":"1457","nr_zona":"0275","ano":2018,"total_votos":36897,"votos_campo":5089}},{"type":"Feature","geometry":{"type":"Point","coordinates":[-47.059564,-22.9056391]},"properties":{"nr_local":"1872","nr_zona":"0274","ano":2018,"total_votos":34296,"votos_campo":4456}},{"type":"Feature","geometry":{"type":"Point","coordinates":[-47.059564,-22.9056391]},"properties":{"nr_local":"1252","nr_zona":"0378","ano":2018,"total_votos":57013,"votos_campo":8627}},{"type":"Feature","geometry":{"type":"Point","coordinates":[-47.059564,-22.9056391]},"properties":{"nr_local":"1490","nr_zona":"0378","ano":2018,"total_votos":13471,"votos_campo":2019}},{"type":"Feature","geometry":{"type":"Point","coordinates":[-47.059564,-22.9056391]},"properties":{"nr_local":"1260","nr_zona":"0378","ano":2018,"total_votos":36667,"votos_campo":3962}},{"type":"Feature","geometry":{"type":"Point","coordinates":[-47.059564,-22.9056391]},"properties":{"nr_local":"1368","nr_zona":"0380","ano":2018,"total_votos":65485,"votos_campo":6936}},{"type":"Feature","geometry":{"type":"Point","coordinates":[-47.059564,-22.9056391]},"properties":{"nr_local":"1112","nr_zona":"0423","ano":2018,"total_votos":90309,"votos_campo":10850}},{"type":"Feature","geometry":{"type":"Point","coordinates":[-47.059564,-22.9056391]},"properties":{"nr_local":"1236","nr_zona":"0379","ano":2018,"total_votos":47484,"votos_campo":5121}},{"type":"Feature","geometry":{"type":"Point","coordinates":[-47.059564,-22.9056391]},"properties":{"nr_local":"1856","nr_zona":"0274","ano":2018,"total_votos":15063,"votos_campo":2026}},{"type":"Feature","geometry":{"type":"Point","coordinates":[-47.059564,-22.9056391]},"properties":{"nr_local":"1333","nr_zona":"0380","ano":2018,"total_votos":35726,"votos_campo":4273}},{"type":"Feature","geometry":{"type":"Point","coordinates":[-47.059564,-22.9056391]},"properties":{"nr_local":"1120","nr_zona":"0033","ano":2018,"total_votos":93885,"votos_campo":11044}},{"type":"Feature","geometry":{"type":"Point","coordinates":[-47.059564,-22.9056391]},"properties":{"nr_local":"1074","nr_zona":"0275","ano":2018,"total_votos":94590,"votos_campo":12490}},{"type":"Feature","geometry":{"type":"Point","coordinates":[-47.059564,-22.9056391]},"properties":{"nr_local":"1295","nr_zona":"0275","ano":2018,"total_votos":104238,"votos_campo":15604}},{"type":"Feature","geometry":{"type":"Point","coordinates":[-47.059564,-22.9056391]},"properties":{"nr_local":"1147","nr_zona":"0033","ano":2018,"total_votos":103181,"votos_campo":12117}},{"type":"Feature","geometry":{"type":"Point","coordinates":[-47.059564,-22.9056391]},"properties":{"nr_local":"1406","nr_zona":"0380","ano":2018,"total_votos":31692,"votos_campo":4992}},{"type":"Feature","geometry":{"type":"Point","coordinates":[-47.059564,-22.9056391]},"properties":{"nr_local":"1538","nr_zona":"0275","ano":2018,"total_votos":23196,"votos_campo":3610}},{"type":"Feature","geometry":{"type":"Point","coordinates":[-47.059564,-22.9056391]},"properties":{"nr_local":"1686","nr_zona":"0274","ano":2018,"total_votos":6506,"votos_campo":676}},{"type":"Feature","geometry":{"type":"Point","coordinates":[-47.059564,-22.9056391]},"properties":{"nr_local":"1830","nr_zona":"0275","ano":2018,"total_votos":16842,"votos_campo":2383}},{"type":"Feature","geometry":{"type":"Point","coordinates":[-47.059564,-22.9056391]},"properties":{"nr_local":"1910","nr_zona":"0275","ano":2018,"total_votos":15452,"votos_campo":1821}},{"type":"Feature","geometry":{"type":"Point","coordinates":[-47.059564,-22.9056391]},"properties":{"nr_local":"1449","nr_zona":"0380","ano":2018,"total_votos":70826,"votos_campo":10703}},{"type":"Feature","geometry":{"type":"Point","coordinates":[-47.059564,-22.9056391]},"properties":{"nr_local":"1210","nr_zona":"0379","ano":2018,"total_votos":40124,"votos_campo":5873}},{"type":"Feature","geometry":{"type":"Point","coordinates":[-47.059564,-22.9056391]},"properties":{"nr_local":"1600","nr_zona":"0275","ano":2018,"total_votos":13606,"votos_campo":2729}},{"type":"Feature","geometry":{"type":"Point","coordinates":[-47.059564,-22.9056391]},"properties":{"nr_local":"1589","nr_zona":"0378","ano":2018,"total_votos":14207,"votos_campo":2430}},{"type":"Feature","geometry":{"type":"Point","coordinates":[-47.059564,-22.9056391]},"properties":{"nr_local":"1520","nr_zona":"0378","ano":2018,"total_votos":22325,"votos_campo":4053}},{"type":"Feature","geometry":{"type":"Point","coordinates":[-47.059564,-22.9056391]},"properties":{"nr_local":"1864","nr_zona":"0274","ano":2018,"total_votos":15749,"votos_campo":1549}},{"type":"Feature","geometry":{"type":"Point","coordinates":[-47.059564,-22.9056391]},"properties":{"nr_local":"1597","nr_zona":"0378","ano":2018,"total_votos":4257,"votos_campo":525}},{"type":"Feature","geometry":{"type":"Point","coordinates":[-47.059564,-22.9056391]},"properties":{"nr_local":"1341","nr_zona":"0378","ano":2018,"total_votos":12460,"votos_campo":1832}},{"type":"Feature","geometry":{"type":"Point","coordinates":[-47.059564,-22.9056391]},"properties":{"nr_local":"1228","nr_zona":"0423","ano":2018,"total_votos":17130,"votos_campo":2796}},{"type":"Feature","geometry":{"type":"Point","coordinates":[-47.059564,-22.9056391]},"properties":{"nr_local":"1848","nr_zona":"0274","ano":2018,"total_votos":10771,"votos_campo":1375}},{"type":"Feature","geometry":{"type":"Point","coordinates":[-47.059564,-22.9056391]},"properties":{"nr_local":"1902","nr_zona":"0275","ano":2018,"total_votos":7462,"votos_campo":1561}},{"type":"Feature","geometry":{"type":"Point","coordinates":[-47.059564,-22.9056391]},"properties":{"nr_local":"1511","nr_zona":"0378","ano":2018,"total_votos":6942,"votos_campo":1123}},{"type":"Feature","geometry":{"type":"Point","coordinates":[-47.059564,-22.9056391]},"properties":{"nr_local":"1759","nr_zona":"0274","ano":2018,"total_votos":4912,"votos_campo":574}},{"type":"Feature","geometry":{"type":"Point","coordinates":[-47.059564,-22.9056391]},"properties":{"nr_local":"1660","nr_zona":"0378","ano":2018,"total_votos":3534,"votos_campo":762}}]}