{"type":"FeatureCollection","features":[{"type":"Feature","geometry":{"type":"Point","coordinates":[-47.1402912,-22.9723233]},"properties":{"nr_local":"1104","nr_zona":"0274","ano":2022,"total_votos":98163,"votos_campo":26429,"votos_ediane":171}},{"type":"Feature","geometry":{"type":"Point","coordinates":[-47.1449666,-22.8942063]},"properties":{"nr_local":"1112","nr_zona":"0274","ano":2022,"total_votos":74717,"votos_campo":16378,"votos_ediane":73}},{"type":"Feature","geometry":{"type":"Point","coordinates":[-46.9760309,-22.8841325]},"properties":{"nr_local":"1139","nr_zona":"0423","ano":2022,"total_votos":114656,"votos_campo":27787,"votos_ediane":136}},{"type":"Feature","geometry":{"type":"Point","coordinates":[-47.1224251,-22.9452875]},"properties":{"nr_local":"1201","nr_zona":"0423","ano":2022,"total_votos":92267,"votos_campo":21034,"votos_ediane":66}},{"type":"Feature","geometry":{"type":"Point","coordinates":[-47.0873837,-22.9319607]},"properties":{"nr_local":"1180","nr_zona":"0275","ano":2022,"total_votos":86796,"votos_campo":17543,"votos_ediane":115}},{"type":"Feature","geometry":{"type":"Point","coordinates":[-47.0950043,-22.9647092]},"properties":{"nr_local":"1538","nr_zona":"0275","ano":2022,"total_votos":20859,"votos_campo":5390,"votos_ediane":11}},{"type":"Feature","geometry":{"type":"Point","coordinates":[-47.0468131,-22.928193]},"properties":{"nr_local":"1848","nr_zona":"0275","ano":2022,"total_votos":9942,"votos_campo":2209,"votos_ediane":13}},{"type":"Feature","geometry":{"type":"Point","coordinates":[-47.0612683,-22.8588753]},"properties":{"nr_local":"1457","nr_zona":"0275","ano":2022,"total_votos":32737,"votos_campo":8054,"votos_ediane":33}},{"type":"Feature","geometry":{"type":"Point","coordinates":[-47.0616,-22.9064]},"properties":{"nr_local":"1066","nr_zona":"0423","ano":2022,"total_votos":69653,"votos_campo":16877,"votos_ediane":63}},{"type":"Feature","geometry":{"type":"Point","coordinates":[-47.054197,-22.9230302]},"properties":{"nr_local":"1155","nr_zona":"0380","ano":2022,"total_votos":97973,"votos_campo":20180,"votos_ediane":94}},{"type":"Feature","geometry":{"type":"Point","coordinates":[-47.0356543,-22.9345505]},"properties":{"nr_local":"1872","nr_zona":"0275","ano":2022,"total_votos":28976,"votos_campo":7517,"votos_ediane":35}},{"type":"Feature","geometry":{"type":"Point","coordinates":[-47.1004165,-22.983569]},"properties":{"nr_local":"1368","nr_zona":"0380","ano":2022,"total_votos":55487,"votos_campo":11352,"votos_ediane":51}},{"type":"Feature","geometry":{"type":"Point","coordinates":[-47.0616,-22.9064]},"properties":{"nr_local":"1236","nr_zona":"0033","ano":2022,"total_votos":38462,"votos_campo":8135,"votos_ediane":35}},{"type":"Feature","geometry":{"type":"Point","coordinates":[-47.0616,-22.9064]},"properties":{"nr_local":"1198","nr_zona":"0378","ano":2022,"total_votos":99059,"votos_campo":21095,"votos_ediane":98}},{"type":"Feature","geometry":{"type":"Point","coordinates":[-47.0503261,-22.8943716]},"properties":{"nr_local":"1015","nr_zona":"0033","ano":2022,"total_votos":78278,"votos_campo":16532,"votos_ediane":97}},{"type":"Feature","geometry":{"type":"Point","coordinates":[-47.0616,-22.9064]},"properties":{"nr_local":"1821","nr_zona":"0275","ano":2022,"total_votos":6196,"votos_campo":1322,"votos_ediane":1}},{"type":"Feature","geometry":{"type":"Point","coordinates":[-47.151634,-22.8674823]},"properties":{"nr_local":"1414","nr_zona":"0379","ano":2022,"total_votos":57522,"votos_campo":12892,"votos_ediane":24}},{"type":"Feature","geometry":{"type":"Point","coordinates":[-47.1499056,-22.8976312]},"properties":{"nr_local":"1074","nr_zona":"0033","ano":2022,"total_votos":78320,"votos_campo":19790,"votos_ediane":101}},{"type":"Feature","geometry":{"type":"Point","coordinates":[-47.0359338,-22.858889]},"properties":{"nr_local":"1317","nr_zona":"0379","ano":2022,"total_votos":69218,"votos_campo":16546,"votos_ediane":37}},{"type":"Feature","geometry":{"type":"Point","coordinates":[-47.0254278,-22.947271]},"properties":{"nr_local":"1481","nr_zona":"0380","ano":2022,"total_votos":40607,"votos_campo":9945,"votos_ediane":33}},{"type":"Feature","geometry":{"type":"Point","coordinates":[-47.1486902,-22.9784626]},"properties":{"nr_local":"1490","nr_zona":"0379","ano":2022,"total_votos":13910,"votos_campo":3467,"votos_ediane":12}},{"type":"Feature","geometry":{"type":"Point","coordinates":[-47.1080605,-22.8528314]},"properties":{"nr_local":"1309","nr_zona":"0378","ano":2022,"total_votos":79585,"votos_campo":18287,"votos_ediane":67}},{"type":"Feature","geometry":{"type":"Point","coordinates":[-47.0681639,-22.9145125]},"properties":{"nr_local":"1147","nr_zona":"0274","ano":2022,"total_votos":77791,"votos_campo":17117,"votos_ediane":107}},{"type":"Feature","geometry":{"type":"Point","coordinates":[-47.2168798,-22.9600697]},"properties":{"nr_local":"1228","nr_zona":"0379","ano":2022,"total_votos":9406,"votos_campo":2447,"votos_ediane":2}},{"type":"Feature","geometry":{"type":"Point","coordinates":[-47.085441,-22.893859]},"properties":{"nr_local":"1465","nr_zona":"0380","ano":2022,"total_votos":38481,"votos_campo":9065,"votos_ediane":55}},{"type":"Feature","geometry":{"type":"Point","coordinates":[-47.1034374,-22.9394149]},"properties":{"nr_local":"1023","nr_zona":"0378","ano":2022,"total_votos":73178,"votos_campo":16908,"votos_ediane":85}},{"type":"Feature","geometry":{"type":"Point","coordinates":[-47.1223218,-22.8886166]},"properties":{"nr_local":"1120","nr_zona":"0274","ano":2022,"total_votos":77012,"votos_campo":17194,"votos_ediane":87}},{"type":"Feature","geometry":{"type":"Point","coordinates":[-47.0708398,-22.7919104]},"properties":{"nr_local":"1546","nr_zona":"0275","ano":2022,"total_votos":9696,"votos_campo":3067,"votos_ediane":40}},{"type":"Feature","geometry":{"type":"Point","coordinates":[-47.136499,-22.978587]},"properties":{"nr_local":"1252","nr_zona":"0378","ano":2022,"total_votos":42923,"votos_campo":10245,"votos_ediane":27}},{"type":"Feature","geometry":{"type":"Point","coordinates":[-47.0449363,-22.9115758]},"properties":{"nr_local":"1171","nr_zona":"0275","ano":2022,"total_votos":89231,"votos_campo":21079,"votos_ediane":115}},{"type":"Feature","geometry":{"type":"Point","coordinates":[-47.0916928,-22.818047]},"properties":{"nr_local":"1058","nr_zona":"0378","ano":2022,"total_votos":87829,"votos_campo":23208,"votos_ediane":129}},{"type":"Feature","geometry":{"type":"Point","coordinates":[-47.1278076,-22.9754476]},"properties":{"nr_local":"1082","nr_zona":"0378","ano":2022,"total_votos":80129,"votos_campo":18719,"votos_ediane":57}},{"type":"Feature","geometry":{"type":"Point","coordinates":[-47.1870024,-22.9400851]},"properties":{"nr_local":"1325","nr_zona":"0379","ano":2022,"total_votos":56718,"votos_campo":13526,"votos_ediane":20}},{"type":"Feature","geometry":{"type":"Point","coordinates":[-47.119025,-22.8903927]},"properties":{"nr_local":"1090","nr_zona":"0379","ano":2022,"total_votos":100354,"votos_campo":21425,"votos_ediane":90}},{"type":"Feature","geometry":{"type":"Point","coordinates":[-47.0439486,-22.8621257]},"properties":{"nr_local":"1929","nr_zona":"0275","ano":2022,"total_votos":50775,"votos_campo":11130,"votos_ediane":94}},{"type":"Feature","geometry":{"type":"Point","coordinates":[-47.0909386,-22.8237837]},"properties":{"nr_local":"1589","nr_zona":"0275","ano":2022,"total_votos":13360,"votos_campo":4239,"votos_ediane":40}},{"type":"Feature","geometry":{"type":"Point","coordinates":[-47.098445,-22.9118793]},"properties":{"nr_local":"1295","nr_zona":"0380","ano":2022,"total_votos":89773,"votos_campo":21493,"votos_ediane":48}},{"type":"Feature","geometry":{"type":"Point","coordinates":[-47.1132622,-22.9670944]},"properties":{"nr_local":"1384","nr_zona":"0378","ano":2022,"total_votos":29708,"votos_campo":6568,"votos_ediane":26}},{"type":"Feature","geometry":{"type":"Point","coordinates":[-47.0983115,-22.9039688]},"properties":{"nr_local":"1350","nr_zona":"0380","ano":2022,"total_votos":40957,"votos_campo":8116,"votos_ediane":40}},{"type":"Feature","geometry":{"type":"Point","coordinates":[-47.1364628,-22.9768521]},"properties":{"nr_local":"1279","nr_zona":"0378","ano":2022,"total_votos":58824,"votos_campo":12522,"votos_ediane":74}},{"type":"Feature","geometry":{"type":"Point","coordinates":[-47.1157393,-23.0305406]},"properties":{"nr_local":"1163","nr_zona":"0274","ano":2022,"total_votos":75135,"votos_campo":18226,"votos_ediane":60}},{"type":"Feature","geometry":{"type":"Point","coordinates":[-47.1178808,-22.9453235]},"properties":{"nr_local":"1422","nr_zona":"0380","ano":2022,"total_votos":46178,"votos_campo":10402,"votos_ediane":22}},{"type":"Feature","geometry":{"type":"Point","coordinates":[-47.1866038,-22.9518836]},"properties":{"nr_local":"1341","nr_zona":"0379","ano":2022,"total_votos":10996,"votos_campo":2467,"votos_ediane":5}},{"type":"Feature","geometry":{"type":"Point","coordinates":[-47.0616,-22.9064]},"properties":{"nr_local":"1031","nr_zona":"0380","ano":2022,"total_votos":47932,"votos_campo":10148,"votos_ediane":59}},{"type":"Feature","geometry":{"type":"Point","coordinates":[-47.0616,-22.9064]},"properties":{"nr_local":"1759","nr_zona":"0274","ano":2022,"total_votos":4550,"votos_campo":990,"votos_ediane":2}},{"type":"Feature","geometry":{"type":"Point","coordinates":[-47.0372577,-22.8495257]},"properties":{"nr_local":"1503","nr_zona":"0275","ano":2022,"total_votos":41480,"votos_campo":9502,"votos_ediane":26}},{"type":"Feature","geometry":{"type":"Point","coordinates":[-47.1367922,-22.9369786]},"properties":{"nr_local":"1430","nr_zona":"0380","ano":2022,"total_votos":44466,"votos_campo":11204,"votos_ediane":32}},{"type":"Feature","geometry":{"type":"Point","coordinates":[-47.1015134,-22.9855642]},"properties":{"nr_local":"1643","nr_zona":"0378","ano":2022,"total_votos":8852,"votos_campo":2279,"votos_ediane":10}},{"type":"Feature","geometry":{"type":"Point","coordinates":[-47.1386093,-22.9919922]},"properties":{"nr_local":"1376","nr_zona":"0378","ano":2022,"total_votos":28325,"votos_campo":6503,"votos_ediane":24}},{"type":"Feature","geometry":{"type":"Point","coordinates":[-47.0497121,-22.8980771]},"properties":{"nr_local":"2135","nr_zona":"0033","ano":2022,"total_votos":13816,"votos_campo":3296,"votos_ediane":31}},{"type":"Feature","geometry":{"type":"Point","coordinates":[-47.0213533,-22.9172933]},"properties":{"nr_local":"1210","nr_zona":"0379","ano":2022,"total_votos":35079,"votos_campo":8513,"votos_ediane":33}},{"type":"Feature","geometry":{"type":"Point","coordinates":[-47.085241,-22.8980947]},"properties":{"nr_local":"1392","nr_zona":"0378","ano":2022,"total_votos":48998,"votos_campo":10656,"votos_ediane":32}},{"type":"Feature","geometry":{"type":"Point","coordinates":[-47.1415002,-22.9718604]},"properties":{"nr_local":"1686","nr_zona":"0274","ano":2022,"total_votos":11942,"votos_campo":2770,"votos_ediane":13}},{"type":"Feature","geometry":{"type":"Point","coordinates":[-47.0749843,-22.8258066]},"properties":{"nr_local":"1880","nr_zona":"0275","ano":2022,"total_votos":18604,"votos_campo":6457,"votos_ediane":107}},{"type":"Feature","geometry":{"type":"Point","coordinates":[-47.1619263,-22.9654531]},"properties":{"nr_local":"1449","nr_zona":"0378","ano":2022,"total_votos":63975,"votos_campo":16138,"votos_ediane":45}},{"type":"Feature","geometry":{"type":"Point","coordinates":[-47.1454026,-22.8851048]},"properties":{"nr_local":"1287","nr_zona":"0275","ano":2022,"total_votos":61733,"votos_campo":16361,"votos_ediane":51}},{"type":"Feature","geometry":{"type":"Point","coordinates":[-47.1096348,-22.9333917]},"properties":{"nr_local":"1040","nr_zona":"0378","ano":2022,"total_votos":68134,"votos_campo":16546,"votos_ediane":55}},{"type":"Feature","geometry":{"type":"Point","coordinates":[-47.0961189,-22.9302629]},"properties":{"nr_local":"1597","nr_zona":"0378","ano":2022,"total_votos":4839,"votos_campo":1146,"votos_ediane":3}},{"type":"Feature","geometry":{"type":"Point","coordinates":[-47.0771071,-22.9645612]},"properties":{"nr_local":"1562","nr_zona":"0378","ano":2022,"total_votos":19163,"votos_campo":4022,"votos_ediane":26}},{"type":"Feature","geometry":{"type":"Point","coordinates":[-47.0681639,-22.9145125]},"properties":{"nr_local":"1961","nr_zona":"0275","ano":2022,"total_votos":15339,"votos_campo":3479,"votos_ediane":27}},{"type":"Feature","geometry":{"type":"Point","coordinates":[-47.0586452,-22.8804835]},"properties":{"nr_local":"1724","nr_zona":"0274","ano":2022,"total_votos":29524,"votos_campo":6152,"votos_ediane":43}},{"type":"Feature","geometry":{"type":"Point","coordinates":[-47.0886003,-22.920298]},"properties":{"nr_local":"1260","nr_zona":"0378","ano":2022,"total_votos":35140,"votos_campo":7377,"votos_ediane":32}},{"type":"Feature","geometry":{"type":"Point","coordinates":[-47.0940896,-22.9321799]},"properties":{"nr_local":"1333","nr_zona":"0380","ano":2022,"total_votos":28065,"votos_campo":6699,"votos_ediane":18}},{"type":"Feature","geometry":{"type":"Point","coordinates":[-47.1079495,-22.9736544]},"properties":{"nr_local":"1406","nr_zona":"0380","ano":2022,"total_votos":27695,"votos_campo":7131,"votos_ediane":14}},{"type":"Feature","geometry":{"type":"Point","coordinates":[-47.091576,-22.9359335]},"properties":{"nr_local":"1554","nr_zona":"0275","ano":2022,"total_votos":22421,"votos_campo":5227,"votos_ediane":23}},{"type":"Feature","geometry":{"type":"Point","coordinates":[-47.0616,-22.9064]},"properties":{"nr_local":"1899","nr_zona":"0274","ano":2022,"total_votos":15029,"votos_campo":3696,"votos_ediane":32}},{"type":"Feature","geometry":{"type":"Point","coordinates":[-47.0616,-22.9064]},"properties":{"nr_local":"1902","nr_zona":"0275","ano":2022,"total_votos":8573,"votos_campo":3508,"votos_ediane":62}},{"type":"Feature","geometry":{"type":"Point","coordinates":[-47.0410726,-22.940068]},"properties":{"nr_local":"1856","nr_zona":"0274","ano":2022,"total_votos":13271,"votos_campo":3359,"votos_ediane":12}},{"type":"Feature","geometry":{"type":"Point","coordinates":[-47.1661866,-22.9307354]},"properties":{"nr_local":"1473","nr_zona":"0378","ano":2022,"total_votos":14756,"votos_campo":4167,"votos_ediane":6}},{"type":"Feature","geometry":{"type":"Point","coordinates":[-47.1326861,-22.9555585]},"properties":{"nr_local":"1520","nr_zona":"0379","ano":2022,"total_votos":24315,"votos_campo":7131,"votos_ediane":10}},{"type":"Feature","geometry":{"type":"Point","coordinates":[-47.0605833,-22.8666281]},"properties":{"nr_local":"1910","nr_zona":"0275","ano":2022,"total_votos":13820,"votos_campo":2968,"votos_ediane":32}},{"type":"Feature","geometry":{"type":"Point","coordinates":[-47.061008,-22.9074429]},"properties":{"nr_local":"2151","nr_zona":"0033","ano":2022,"total_votos":8261,"votos_campo":1885,"votos_ediane":6}},{"type":"Feature","geometry":{"type":"Point","coordinates":[-47.0891757,-22.9267097]},"properties":{"nr_local":"1244","nr_zona":"0380","ano":2022,"total_votos":50410,"votos_campo":11892,"votos_ediane":32}},{"type":"Feature","geometry":{"type":"Point","coordinates":[-47.0616,-22.9064]},"properties":{"nr_local":"1678","nr_zona":"0378","ano":2022,"total_votos":5867,"votos_campo":1529,"votos_ediane":5}},{"type":"Feature","geometry":{"type":"Point","coordinates":[-47.033105,-22.9500883]},"properties":{"nr_local":"1830","nr_zona":"0274","ano":2022,"total_votos":17632,"votos_campo":4275,"votos_ediane":35}},{"type":"Feature","geometry":{"type":"Point","coordinates":[-47.0616,-22.9064]},"properties":{"nr_local":"2240","nr_zona":"0033","ano":2022,"total_votos":1277,"votos_campo":326,"votos_ediane":2}},{"type":"Feature","geometry":{"type":"Point","coordinates":[-47.0806396,-22.9522583]},"properties":{"nr_local":"1651","nr_zona":"0378","ano":2022,"total_votos":8782,"votos_campo":2945,"votos_ediane":5}},{"type":"Feature","geometry":{"type":"Point","coordinates":[-47.1124719,-23.0395177]},"properties":{"nr_local":"1660","nr_zona":"0378","ano":2022,"total_votos":10724,"votos_campo":3581,"votos_ediane":7}},{"type":"Feature","geometry":{"type":"Point","coordinates":[-47.0515456,-22.9597308]},"properties":{"nr_local":"1945","nr_zona":"0275","ano":2022,"total_votos":9194,"votos_campo":2363,"votos_ediane":23}},{"type":"Feature","geometry":{"type":"Point","coordinates":[-47.0906109,-22.9531008]},"properties":{"nr_local":"1570","nr_zona":"0378","ano":2022,"total_votos":5319,"votos_campo":1371,"votos_ediane":6}},{"type":"Feature","geometry":{"type":"Point","coordinates":[-47.0616,-22.9064]},"properties":{"nr_local":"1600","nr_zona":"0275","ano":2022,"total_votos":14097,"votos_campo":5071,"votos_ediane":65}},{"type":"Feature","geometry":{"type":"Point","coordinates":[-47.0340294,-22.813504]},"properties":{"nr_local":"1864","nr_zona":"0275","ano":2022,"total_votos":15141,"votos_campo":3189,"votos_ediane":23}},{"type":"Feature","geometry":{"type":"Point","coordinates":[-47.0616,-22.9064]},"properties":{"nr_local":"1511","nr_zona":"0379","ano":2022,"total_votos":10020,"votos_campo":2672,"votos_ediane":2}},{"type":"Feature","geometry":{"type":"Point","coordinates":[-47.142736,-22.8337177]},"properties":{"nr_local":"1988","nr_zona":"0275","ano":2022,"total_votos":1891,"votos_campo":718,"votos_ediane":2}},{"type":"Feature","geometry":{"type":"Point","coordinates":[-47.0616,-22.9064]},"properties":{"nr_local":"1996","nr_zona":"0275","ano":2022,"total_votos":2792,"votos_campo":901,"votos_ediane":3}},{"type":"Feature","geometry":{"type":"Point","coordinates":[-47.1243893,-22.9739235]},"properties":{"nr_local":"1694","nr_zona":"0378","ano":2022,"total_votos":1221,"votos_campo":297,"votos_ediane":1}},{"type":"Feature","geometry":{"type":"Point","coordinates":[-47.1072229,-22.8458811]},"properties":{"nr_local":"2003","nr_zona":"0275","ano":2022,"total_votos":668,"votos_campo":235,"votos_ediane":2}}]}